[{"OBJECT_NAME":"CONTINUUM-1","OBJECT_ID":"2023-001AN","EPOCH":"2026-03-09T23:17:35.458656","MEAN_MOTION":15.27981258,"ECCENTRICITY":0.00109493,"INCLINATION":97.3456,"RA_OF_ASC_NODE":133.3964,"ARG_OF_PERICENTER":60.1976,"MEAN_ANOMALY":300.0351,"EPHEMERIS_TYPE":0,"CLASSIFICATION_TYPE":"U","NORAD_CAT_ID":55045,"ELEMENT_SET_NO":999,"REV_AT_EPOCH":17709,"BSTAR":0.00052859897,"MEAN_MOTION_DOT":0.00014395,"MEAN_MOTION_DDOT":0},{"OBJECT_NAME":"STARLINK-32097","OBJECT_ID":"2024-136Y","EPOCH":"2026-03-09T10:54:45.211680","MEAN_MOTION":15.30191854,"ECCENTRICITY":0.00011834,"INCLINATION":53.1604,"RA_OF_ASC_NODE":76.3923,"ARG_OF_PERICENTER":76.496,"MEAN_ANOMALY":283.6173,"EPHEMERIS_TYPE":0,"CLASSIFICATION_TYPE":"U","NORAD_CAT_ID":60351,"ELEMENT_SET_NO":999,"REV_AT_EPOCH":8963,"BSTAR":2.300021e-5,"MEAN_MOTION_DOT":3.22e-6,"MEAN_MOTION_DDOT":0}]
